satname,norad_id,inclination_deg,eccentricity,mean_motion_rev_per_day,perigee_km,apogee_km,l1,l2
STARLINK-1363,45568,53.056,0.0001324,15.33321461,465.0046123796301,466.8169162276181,1 45568U 20025AP  25298.91668980  .01816403  00000+0  49912-1 0  9998,2 45568  53.0560 330.5266 0001324  96.6819  24.6656 15.33321461  5792
STARLINK-1366,45569,53.0609,0.0001028,15.36242581,456.5294997826495,457.93485168518055,1 45569U 20025AQ  25298.83336806  .00002528  00000+0  81226-4 0  9990,2 45569  53.0609 330.3538 0001028 105.6471 139.1996 15.36242581  5789
STARLINK-1376,45570,53.0549,0.0001277,15.06405273,546.311032052774,548.0797619469668,1 45570U 20025AR  25298.80508898 -.00000095  00000+0  12528-4 0  9998,2 45570  53.0549 332.1407 0001277  89.1906 270.9230 15.06405273305036
STARLINK-1320,45572,53.0581,0.0009209,15.41292223,436.01354007871487,448.5754107701514,1 45572U 20025AT  25298.83336806  .00154009  00000+0  35755-2 0  9990,2 45572  53.0581 276.7927 0009209 352.0254  67.0942 15.41292223  5710
STARLINK-1321,45573,53.0556,0.0001375,15.06394471,546.2762658220445,548.1807413355282,1 45573U 20025AU  25298.79127389 -.00002427  00000+0 -14412-3 0  9996,2 45573  53.0556 322.2034 0001375  89.9265 270.1881 15.06394471304870
STARLINK-1328,45576,53.0516,0.0010084,15.65669905,364.50666422786526,378.1189546034939,1 45576U 20025AX  25298.83336806  .00234689  00000+0  22199-2 0  9995,2 45576  53.0516 300.7780 0010084  15.3848 279.2778 15.65669905  5825
STARLINK-1331,45578,53.0542,0.000161,15.06394222,546.1142827637532,548.3442507016407,1 45578U 20025AZ  25298.76917220  .00001224  00000+0  10106-3 0  9997,2 45578  53.0542 322.3009 0001610  91.7752 268.3421 15.06394222305185
STARLINK-1333,45580,53.0563,0.0001562,15.06404634,546.1156182057839,548.2790926584212,1 45580U 20025BB  25298.51022424 -.00000165  00000+0  78328-5 0  9992,2 45580  53.0563 333.4615 0001562  90.3501 269.7667 15.06404634304994
STARLINK-1335,45581,53.0545,0.0001564,15.0639645,546.1393119822169,548.3055644144852,1 45581U 20025BC  25298.78022484  .00003724  00000+0  26878-3 0  9992,2 45581  53.0545 322.2515 0001564  84.8722 275.2445 15.06396450305178
STARLINK-1337,45582,53.0544,0.0001402,15.06411129,546.2065202803351,548.1483784519378,1 45582U 20025BD  25298.80232852  .00007366  00000+0  51274-3 0  9992,2 45582  53.0544 322.1531 0001402  84.4258 275.6891 15.06411129305176
STARLINK-1347,45586,53.0554,0.0005959,15.30329779,470.74391849778567,478.91128170818865,1 45586U 20025BH  25298.31740054  .00095039  00000+0  31660-2 0  9990,2 45586  53.0554 310.9100 0005959 327.1509  32.9120 15.30329779305282
STARLINK-1360,45588,53.0453,0.0005998,15.73777071,344.0790162222529,352.1478262275541,1 45588U 20025BK  25298.23349543  .00120323  00000+0  82793-3 0  9990,2 45588  53.0453 231.9152 0005998 100.8539 259.3155 15.73777071306398
STARLINK-1364,45589,53.0544,0.0001347,15.06405774,546.2610194493645,548.1267035834571,1 45589U 20025BL  25298.80602753  .00001865  00000+0  14402-3 0  9990,2 45589  53.0544 322.1395 0001347  84.2225 275.8918 15.06405774305172
STARLINK-1365,45590,53.0553,0.0001425,15.06407302,546.2023194699295,548.1760374307878,1 45590U 20025BM  25298.42360712  .00000838  00000+0  75147-4 0  9999,2 45590  53.0553 353.8504 0001425  93.5160 266.5992 15.06407302304712
STARLINK-1443,45660,53.0551,0.0001276,15.06399244,546.3302001987167,548.0975497420086,1 45660U 20035D   25298.74059213 -.00001804  00000+0 -10226-3 0  9996,2 45660  53.0551 312.4301 0001276 100.5743 259.5390 15.06399244298399
STARLINK-1446,45663,53.0276,0.000111,15.32907699,466.3824451611845,467.9020971593809,1 45663U 20035G   25298.65337950  .00027367  00000+0  85742-3 0  9991,2 45663  53.0276 276.8473 0001110   2.5018 357.5987 15.32907699298885
STARLINK-1448,45665,53.0542,0.0001265,15.0640025,546.3347352287365,548.0868482200431,1 45665U 20035J   25298.74428414  .00002272  00000+0  17139-3 0  9992,2 45665  53.0542 312.4105 0001265  91.0076 269.1057 15.06400250298383
STARLINK-1451,45668,53.0546,0.0001379,15.06395721,546.2696651133965,548.1796798626683,1 45668U 20035M   25298.74801850  .00001684  00000+0  13194-3 0  9997,2 45668  53.0546 312.7134 0001379  96.8479 263.2667 15.06395721298390
STARLINK-1452,45669,53.042,0.0010439,15.25709671,481.4870098960009,495.823498764591,1 45669U 20035N   25298.73099426  .00028342  00000+0  11050-2 0  9993,2 45669  53.0420 294.5513 0010439 356.3674   3.7245 15.25709671298649
STARLINK-1453,45670,53.054,0.0001182,15.06402751,546.38455132937,548.0217017352816,1 45670U 20035P   25298.69175630  .00001714  00000+0  13393-3 0  9999,2 45670  53.0540 282.6510 0001182  89.0051 271.1073 15.06402751298696
STARLINK-1454,45671,53.055,0.0001466,15.06409527,546.167107391243,548.1976110273645,1 45671U 20035Q   25298.77008346  .00003709  00000+0  26766-3 0  9992,2 45671  53.0550 312.2982 0001466  88.7302 271.3855 15.06409527298385
STARLINK-1456,45673,53.0548,0.0001514,15.06408165,546.1380395193119,548.2350274852561,1 45673U 20035S   25298.45309258  .00004207  00000+0  30107-3 0  9993,2 45673  53.0548 313.7207 0001514  89.8852 270.2311 15.06408165298355
STARLINK-1457,45674,53.054,0.0001499,15.06439987,546.050914875038,548.1270976317128,1 45674U 20035T   25298.39408220  .00007532  00000+0  52342-3 0  9995,2 45674  53.0540 313.9828 0001499 114.4635 245.6510 15.06439987298314
STARLINK-1458,45675,53.0545,0.0001404,15.06435977,546.1289923526501,548.0735992661148,1 45675U 20035U   25298.78113486  .00009018  00000+0  62294-3 0  9994,2 45675  53.0545 312.2463 0001404  87.3199 272.7951 15.06435977298366
STARLINK-1460,45676,53.0543,0.0001393,15.06398046,546.2528447849727,548.1822485616767,1 45676U 20035V   25298.75164977  .00000696  00000+0  65604-4 0  9995,2 45676  53.0543 312.3788 0001393  94.5118 265.6030 15.06398046298357
STARLINK-1392,45677,53.0551,0.0001339,15.06419323,546.2250401172041,548.0796326014806,1 45677U 20035W   25298.76270125 -.00010593  00000+0 -69294-3 0  9997,2 45677  53.0551 312.3320 0001339  99.8006 260.3134 15.06419323298396
STARLINK-1394,45679,53.055,0.0001499,15.06395839,546.1861991728447,548.2624224938327,1 45679U 20035Y   25298.42822507  .00007534  00000+0  52418-3 0  9998,2 45679  53.0550 303.8312 0001499  91.4858 268.6302 15.06395839298486
STARLINK-1402,45685,53.0533,0.0001767,15.23149905,495.131814431219,497.5612569127252,1 45685U 20035AE  25298.83336806  .00110706  00000+0  45716-2 0  9990,2 45685  53.0533 295.5283 0001767  90.4480 248.1219 15.23149905  5820
STARLINK-1404,45686,53.0551,0.0001497,15.06402793,546.1662744110972,548.2397212064407,1 45686U 20035AF  25298.32132544  .00000051  00000+0  22350-4 0  9990,2 45686  53.0551 304.3142 0001497  92.0173 268.0987 15.06402793298477
STARLINK-1413,45689,53.0537,0.0001375,15.06400065,546.2591233233215,548.1635941219693,1 45689U 20035AJ  25298.73783473  .00001620  00000+0  12763-3 0  9990,2 45689  53.0537 302.4388 0001375  93.7614 266.3532 15.06400065298442
STARLINK-1417,45693,53.0545,0.0001501,15.06395244,546.1866374251604,548.2656314381165,1 45693U 20035AN  25298.73415494  .00001250  00000+0  10284-3 0  9995,2 45693  53.0545 302.4601 0001501  89.1297 270.9864 15.06395244298521
STARLINK-1420,45695,53.0529,0.0001462,15.06400273,546.1982353958783,548.2232070695673,1 45695U 20035AQ  25298.66869867  .00002053  00000+0  15670-3 0  9992,2 45695  53.0529 282.7406 0001462  90.7810 269.3346 15.06400273298800
STARLINK-1422,45696,53.0537,0.0001351,15.06411753,546.2399271964787,548.1111466439561,1 45696U 20035AR  25298.41347926  .00004858  00000+0  34471-3 0  9998,2 45696  53.0537 303.8999 0001351  94.0377 266.0766 15.06411753298472
STARLINK-1351,45697,53.0545,0.0001471,15.06404878,546.1778910375024,548.2153241848619,1 45697U 20035AS  25298.38951179  .00000319  00000+0  40290-4 0  9991,2 45697  53.0545 284.0060 0001471  90.6190 269.4967 15.06404878298761
STARLINK-1398,45699,53.0508,0.0003799,15.49729908,414.9338652038432,420.09720199887397,1 45699U 20035AU  25298.83336806  .00191626  00000+0  33195-2 0  9993,2 45699  53.0508 243.4466 0003799  82.7327 230.3879 15.49729908  5890
STARLINK-1400,45700,53.0545,0.0001535,15.06412851,546.1091367962981,548.2352067120264,1 45700U 20035AV  25298.69542866  .00002380  00000+0  17858-3 0  9992,2 45700  53.0545 282.6328 0001535  97.3956 262.7207 15.06412851298800
STARLINK-1403,45701,53.0543,0.0001447,15.0639652,546.2201241779348,548.2243231372622,1 45701U 20035AW  25298.65859289  .00000414  00000+0  46684-4 0  9995,2 45701  53.0543 282.7983 0001447  90.9803 269.1351 15.06396520298792
STARLINK-1407,45703,53.0415,0.0011437,15.40363817,437.2310728570419,452.83839588223964,1 45703U 20035AY  25298.83336806  .00158746  00000+0  37950-2 0  9998,2 45703  53.0415 242.0052 0011437  38.1994 261.1640 15.40363817  5816
STARLINK-1411,45706,53.0541,0.0002118,15.38793019,448.2312038042119,451.12346595646613,1 45706U 20035BB  25298.65533029  .00063721  00000+0  16331-2 0  9995,2 45706  53.0541 269.9401 0002118  98.7845 261.3398 15.38793019298979
STARLINK-1423,45710,53.055,0.0001397,15.06402397,546.2367413210059,548.1716816554963,1 45710U 20035BF  25298.68438806 -.00000269  00000+0  82307-6 0  9999,2 45710  53.0550 282.6838 0001397  90.7342 269.3807 15.06402397298808
STARLINK-1433,45711,53.0548,0.0001558,15.06402423,546.1251636538727,548.2830999505413,1 45711U 20035BG  25298.66594919  .00000957  00000+0  83153-4 0  9997,2 45711  53.0548 282.7630 0001558  85.9454 274.1713 15.06402423298794
STARLINK-1434,45712,53.0503,0.0004568,15.14946778,517.9885524066331,524.2917320037513,1 45712U 20035BH  25298.66312376  .00049563  00000+0  26249-2 0  9990,2 45712  53.0503 279.2964 0004568  40.6107 319.5226 15.14946778298859
STARLINK-1465,45731,53.0544,0.0001694,15.06404016,546.0260975433666,548.3724014646987,1 45731U 20038B   25298.83181975  .00001489  00000+0  11886-3 0  9999,2 45731  53.0544 122.0160 0001694  92.2090 267.9093 15.06404016295860
